{"type":"FeatureCollection","features":[{"type":"Feature","geometry":{"type":"Polygon","coordinates":[[[-67.2034,18.30846],[-67.20241,18.30989],[-67.20214,18.31018],[-67.20188,18.3103],[-67.20102,18.31041],[-67.20044,18.31031],[-67.19941,18.31033],[-67.19862,18.3099],[-67.19807,18.30944],[-67.19746,18.3085],[-67.19646,18.30768],[-67.19591,18.30754],[-67.1952,18.30776],[-67.19389,18.30771],[-67.1934,18.30787],[-67.19266,18.30827],[-67.19165,18.30907],[-67.19075,18.30922],[-67.19019,18.30957],[-67.19003,18.30958],[-67.18974,18.30983],[-67.18964,18.31026],[-67.1899,18.31099],[-67.18992,18.31136],[-67.18976,18.31181],[-67.18807,18.31179],[-67.18749,18.31147],[-67.18736,18.31099],[-67.18724,18.31082],[-67.18697,18.31066],[-67.18643,18.31057],[-67.18467,18.31081],[-67.18382,18.311],[-67.18303,18.31095],[-67.1825,18.31107],[-67.1818,18.31158],[-67.18172,18.31206],[-67.18236,18.31252],[-67.18285,18.31303],[-67.18325,18.31277],[-67.18355,18.31269],[-67.18492,18.3128],[-67.18528,18.31291],[-67.18608,18.31372],[-67.1864,18.31548],[-67.1866,18.31564],[-67.18735,18.31567],[-67.18746,18.31575],[-67.1878,18.31638],[-67.18797,18.31644],[-67.18811,18.31754],[-67.18854,18.3185],[-67.18907,18.31923],[-67.18924,18.31964],[-67.1891,18.32065],[-67.18932,18.32106],[-67.18954,18.32123],[-67.18963,18.32222],[-67.18956,18.32309],[-67.18969,18.32324],[-67.18993,18.32331],[-67.19098,18.32331],[-67.19166,18.32355],[-67.19242,18.32406],[-67.19276,18.32413],[-67.19318,18.32446],[-67.1939,18.32426],[-67.19439,18.32465],[-67.19522,18.32496],[-67.1956,18.32552],[-67.19654,18.32588],[-67.19673,18.32606],[-67.1965,18.32677],[-67.19596,18.328],[-67.19546,18.32955],[-67.19549,18.33027],[-67.19575,18.3306],[-67.19801,18.33182],[-67.19855,18.33186],[-67.19969,18.33176],[-67.20067,18.33207],[-67.20059,18.3324],[-67.20021,18.33298],[-67.20063,18.3326],[-67.20082,18.33205],[-67.2018,18.33251],[-67.20196,18.33268],[-67.20249,18.33269],[-67.20279,18.33289],[-67.20325,18.33295],[-67.20318,18.33321],[-67.20288,18.33346],[-67.20281,18.33373],[-67.20302,18.33398],[-67.20388,18.33409],[-67.20386,18.33424],[-67.2035,18.33462],[-67.20357,18.33479],[-67.20416,18.33495],[-67.20472,18.33497],[-67.20586,18.33588],[-67.20643,18.33596],[-67.20815,18.3357],[-67.20904,18.33565],[-67.20919,18.33589],[-67.20988,18.33606],[-67.2105,18.33636],[-67.21099,18.33672],[-67.2117,18.3377],[-67.21177,18.33804],[-67.21166,18.33887],[-67.21174,18.33921],[-67.21196,18.33964],[-67.21269,18.34003],[-67.21348,18.34067],[-67.21396,18.3413],[-67.21438,18.34125],[-67.21517,18.34135],[-67.21538,18.34156],[-67.21561,18.34158],[-67.21675,18.3426],[-67.21701,18.34271],[-67.21802,18.34246],[-67.2184,18.34246],[-67.21896,18.34261],[-67.2199,18.34264],[-67.22003,18.3429],[-67.21995,18.34355],[-67.2196,18.34439],[-67.21957,18.34499],[-67.21946,18.34522],[-67.21957,18.34573],[-67.21991,18.34613],[-67.22112,18.34614],[-67.22289,18.34539],[-67.22307,18.34581],[-67.22329,18.34607],[-67.22361,18.34621],[-67.22389,18.34653],[-67.22439,18.34767],[-67.2251,18.34806],[-67.22551,18.34854],[-67.22561,18.34883],[-67.22563,18.34934],[-67.22586,18.3493],[-67.22622,18.34895],[-67.22669,18.34864],[-67.227,18.34856],[-67.22744,18.34864],[-67.22734,18.34877],[-67.22688,18.34895],[-67.22667,18.34926],[-67.22667,18.34968],[-67.22698,18.35069],[-67.22685,18.35105],[-67.22671,18.35114],[-67.22634,18.35107],[-67.22592,18.35031],[-67.22551,18.35025],[-67.22531,18.35043],[-67.22508,18.35123],[-67.22519,18.35179],[-67.22513,18.35198],[-67.22415,18.35184],[-67.2239,18.35197],[-67.22379,18.35219],[-67.22409,18.35335],[-67.22397,18.35413],[-67.22418,18.35472],[-67.22418,18.35534],[-67.22429,18.35548],[-67.22493,18.35581],[-67.22519,18.35624],[-67.22511,18.35652],[-67.22463,18.35688],[-67.22458,18.35712],[-67.22485,18.35736],[-67.22584,18.35742],[-67.22601,18.3575],[-67.22615,18.3578],[-67.22612,18.35848],[-67.22656,18.35886],[-67.22687,18.35935],[-67.22662,18.36011],[-67.2267,18.36067],[-67.22704,18.36079],[-67.22735,18.36046],[-67.22751,18.36045],[-67.2277,18.361],[-67.22823,18.36173],[-67.22821,18.3621],[-67.22803,18.36233],[-67.22773,18.36249],[-67.22686,18.36264],[-67.22672,18.36275],[-67.22674,18.36292],[-67.22699,18.36306],[-67.22787,18.36314],[-67.22806,18.36327],[-67.22819,18.36379],[-67.22804,18.36428],[-67.22807,18.3644],[-67.22847,18.36447],[-67.22873,18.36442],[-67.22883,18.36424],[-67.22881,18.36375],[-67.22891,18.3637],[-67.22921,18.36374],[-67.22962,18.36422],[-67.22989,18.36439],[-67.23005,18.36439],[-67.23036,18.3641],[-67.23049,18.36409],[-67.23061,18.36427],[-67.23082,18.365],[-67.23114,18.36511],[-67.2313,18.36573],[-67.23158,18.36616],[-67.23195,18.36643],[-67.23238,18.36688],[-67.2329,18.36704],[-67.23317,18.36723],[-67.23352,18.36764],[-67.23419,18.36788],[-67.2347,18.36831],[-67.23534,18.36847],[-67.23562,18.36868],[-67.23563,18.36899],[-67.2354,18.36948],[-67.23524,18.36959],[-67.23535,18.36985],[-67.23528,18.3702],[-67.23535,18.37045],[-67.23514,18.3707],[-67.23486,18.37079],[-67.23508,18.37124],[-67.23527,18.37135],[-67.2356,18.3712],[-67.23665,18.37117],[-67.23668,18.37078],[-67.23684,18.37072],[-67.23707,18.37089],[-67.23726,18.37122],[-67.23737,18.37156],[-67.23735,18.37211],[-67.23741,18.37222],[-67.2386,18.37232],[-67.23876,18.37241],[-67.23884,18.3726],[-67.23914,18.37363],[-67.23903,18.37432],[-67.23886,18.37471],[-67.23916,18.37544],[-67.23914,18.37557],[-67.24017,18.37887],[-67.24938,18.41892],[-67.24963,18.41857],[-67.28049,18.41206],[-67.28476,18.4099],[-67.2901,18.40773],[-67.29705,18.40449],[-67.30272,18.40156],[-67.30748,18.39729],[-67.31415,18.38881],[-67.31869,18.38103],[-67.32136,18.373],[-67.32325,18.36388],[-67.32341,18.3577],[-67.32205,18.35141],[-67.31991,18.34319],[-67.31604,18.33422],[-67.31185,18.32756],[-67.30661,18.31809],[-67.30051,18.31005],[-67.29939,18.30901],[-67.29886,18.30693],[-67.2938,18.29641],[-67.29018,18.28949],[-67.28596,18.28217],[-67.28185,18.27578],[-67.27593,18.26775],[-67.26973,18.26139],[-67.26133,18.25604],[-67.2542,18.25264],[-67.22545,18.29656],[-67.22548,18.29772],[-67.22507,18.29833],[-67.22403,18.29949],[-67.2239,18.29974],[-67.22347,18.30101],[-67.22271,18.30272],[-67.2227,18.30333],[-67.22095,18.30559],[-67.22052,18.30587],[-67.22012,18.30594],[-67.21974,18.30576],[-67.21898,18.30509],[-67.21834,18.30474],[-67.21732,18.30532],[-67.21657,18.3055],[-67.21624,18.30547],[-67.2153,18.30511],[-67.21514,18.30522],[-67.21473,18.30597],[-67.21447,18.30619],[-67.21414,18.30631],[-67.21215,18.30616],[-67.2102,18.30633],[-67.20911,18.30627],[-67.2085,18.30633],[-67.20723,18.30681],[-67.20553,18.308],[-67.20529,18.30809],[-67.2041,18.3082],[-67.2034,18.30846]]]},"properties":{"GEOID":"72117","BASENAME":"Rincón","NAME":"Rincón Municipio","CENTLAT":"+18.3392737","CENTLON":"-067.2646851","INTPTLAT":"+18.3390275","INTPTLON":"-067.2507864"}}]}
